STARLINK-5495           
1 55635U 23021H   24293.46556515  .00001908  00000+0  16756-3 0  9994
2 55635  70.0007  20.8397 0002795 267.9912  92.0927 14.98343998 92668
STARLINK-5218           
1 55636U 23021J   24293.00682408  .00001046  00000+0  95427-4 0  9992
2 55636  70.0009  41.9136 0003496 280.5522  79.5244 14.98334861 92103
STARLINK-5062           
1 55637U 23021K   24292.54763167  .00003354  00000+0  28869-3 0  9992
2 55637  70.0030  23.2510 0002343 271.0927  88.9963 14.98336355 92822
STARLINK-5507           
1 55638U 23021L   24293.41155244  .00001023  00000+0  93516-4 0  9994
2 55638  70.0000  40.9215 0003260 269.9070  90.1715 14.98336990 92164
STARLINK-5508           
1 55639U 23021M   24293.46156546  .00001139  00000+0  10321-3 0  9996
2 55639  70.0007  20.8242 0002877 267.0914  92.9916 14.98324518 92669
STARLINK-5069           
1 55640U 23021N   24292.98989874  .00000999  00000+0  91479-4 0  9999
2 55640  70.0001  21.9830 0003766 268.6376  91.4351 14.98341681 92596
STARLINK-5065           
1 55641U 23021P   24293.19869658 -.00000852  00000+0 -63637-4 0  9996
2 55641  70.0005  21.5117 0002804 270.2687  89.8151 14.98327840 92625
STARLINK-5483           
1 55643U 23021R   24292.96071026  .00000855  00000+0  79397-4 0  9997
2 55643  70.0006  22.2795 0003121 268.1576  91.9226 14.98338064 92586
STARLINK-5502           
1 55644U 23021S   24293.40715716  .00001256  00000+0  11306-3 0  9990
2 55644  70.0010  21.0362 0002878 269.8289  90.2541 14.98336517 92657
STARLINK-5104           
1 55646U 23021U   24292.95236343  .00000421  00000+0  43060-4 0  9991
2 55646  70.0011  22.2577 0003054 270.9425  89.1384 14.98330950 92885
STARLINK-5510           
1 55647U 23021V   24293.44052301  .00001689  00000+0  14925-3 0  9991
2 55647  70.0003  20.7499 0003110 267.3813  92.6990 14.98341652 92666
STARLINK-5501           
1 55648U 23021W   24293.20270267  .00003001  00000+0  25911-3 0  9996
2 55648  70.0004  21.5250 0003096 267.5629  92.5176 14.98340845 92626
STARLINK-5469           
1 55649U 23021X   24293.44887359  .00000591  00000+0  57279-4 0  9993
2 55649  70.0010  20.7796 0003050 267.9423  92.1387 14.98336710 92666
STARLINK-5494           
1 55650U 23021Y   24293.46139466  .00001568  00000+0  13918-3 0  9992
2 55650  70.0025  20.8231 0002600 267.7401  92.3460 14.98334540 92666
STARLINK-5506           
1 55651U 23021Z   24292.54345875  .00003215  00000+0  27705-3 0  9994
2 55651  70.0020  23.2375 0003282 270.8118  89.2665 14.98335132 92823
STARLINK-5487           
1 55652U 23021AA  24292.98572784  .00002337  00000+0  20355-3 0  9992
2 55652  70.0004  21.9721 0003272 266.8497  93.2287 14.98337331 92592
STARLINK-5067           
1 55653U 23021AB  24292.96903405  .00000117  00000+0  17632-4 0  9998
2 55653  70.0010  21.9117 0002962 268.8214  91.2605 14.98330238 92594
STARLINK-5070           
1 55654U 23021AC  24293.42385087  .00001868  00000+0  16424-3 0  9992
2 55654  70.0003  21.0926 0002957 268.6131  91.4690 14.98341671 92652
STARLINK-5267           
1 55655U 23021AD  24293.46111810  .00009295  00000+0  78447-3 0  9993
2 55655  70.0004   0.9480 0003181 263.2474  96.8323 14.98395113 93154
STARLINK-5326           
1 55656U 23021AE  24292.96919483  .00001951  00000+0  17126-3 0  9998
2 55656  70.0009  21.9132 0002981 264.2598  95.8221 14.98337724 92599
STARLINK-5328           
1 55657U 23021AF  24293.20248254  .00000742  00000+0  69998-4 0  9990
2 55657  70.0003   1.6530 0003023 268.4325  91.6488 14.98330827 93118
STARLINK-5307           
1 55658U 23021AG  24293.44469971  .00004860  00000+0  41471-3 0  9998
2 55658  70.0023  20.7649 0003110 266.3766  93.7037 14.98343570 92668
STARLINK-5477           
1 55659U 23021AH  24293.46534242  .00002221  00000+0  19383-3 0  9991
2 55659  70.0005   0.9619 0003262 265.4911  94.5875 14.98341088 93152
STARLINK-5467           
1 55660U 23021AJ  24293.21497817  .00000625  00000+0  60158-4 0  9995
2 55660  70.0000   1.3014 0002942 269.0856  90.9966 14.98333599 93121
STARLINK-5475           
1 55661U 23021AK  24293.44863391  .00003287  00000+0  28294-3 0  9996
2 55661  70.0008   0.9037 0003274 268.3125  91.7659 14.98352094 93152
STARLINK-5479           
1 55662U 23021AL  24293.20665568  .00001131  00000+0  10257-3 0  9993
2 55662  70.0012   1.6780 0003056 271.3048  88.7761 14.98335732 93113
STARLINK-5473           
1 55663U 23021AM  24293.17325909  .00001810  00000+0  15939-3 0  9998
2 55663  70.0011   1.5478 0003187 269.8329  90.2464 14.98342049 93112
STARLINK-5480           
1 55664U 23021AN  24293.45692119  .00014179  00000+0  11907-2 0  9992
2 55664  70.0010   0.9334 0003467 262.6489  97.4276 14.98427757 93159
STARLINK-5474           
1 55665U 23021AP  24293.43612304 -.00000112  00000+0 -15746-5 0  9991
2 55665  70.0014   0.8618 0002487 274.8927  85.1948 14.98344457 93156
STARLINK-5456           
1 55667U 23021AR  24293.23184934 -.00001420  00000+0 -11120-3 0  9997
2 55667  69.9996   1.3512 0002717 277.2484  82.8366 14.98334553 93125
STARLINK-5455           
1 55668U 23021AS  24293.45271877  .00019221  00000+0  16088-2 0  9998
2 55668  70.0015   0.9205 0003126 260.4271  99.6535 14.98460987 93156
