OBJECT_NAME,OBJECT_ID,EPOCH,MEAN_MOTION,ECCENTRICITY,INCLINATION,RA_OF_ASC_NODE,ARG_OF_PERICENTER,MEAN_ANOMALY,EPHEMERIS_TYPE,CLASSIFICATION_TYPE,NORAD_CAT_ID,ELEMENT_SET_NO,REV_AT_EPOCH,BSTAR,MEAN_MOTION_DOT,MEAN_MOTION_DDOT
STARLINK-5495,2023-021H,2024-10-19T11:10:24.828960,14.98343998,0.0002795,70.0007,20.8397,267.9912,92.0927,0,U,55635,999,9266,1.68E-04,1.91E-05,0
STARLINK-5218,2023-021J,2024-10-19T00:09:49.600512,14.98334861,0.0003496,70.0009,41.9136,280.5522,79.5244,0,U,55636,999,9210,9.54E-05,1.05E-05,0
STARLINK-5062,2023-021K,2024-10-18T13:08:35.376288,14.98336355,0.0002343,70.003,23.251,271.0927,88.9963,0,U,55637,999,9282,2.89E-04,3.35E-05,0
STARLINK-5507,2023-021L,2024-10-19T09:52:38.130816,14.9833699,0.000326,70,40.9215,269.907,90.1715,0,U,55638,999,9216,9.35E-05,1.02E-05,0
STARLINK-5508,2023-021M,2024-10-19T11:04:39.255744,14.98324518,0.0002877,70.0007,20.8242,267.0914,92.9916,0,U,55639,999,9266,1.03E-04,1.14E-05,0
STARLINK-5069,2023-021N,2024-10-18T23:45:27.251136,14.98341681,0.0003766,70.0001,21.983,268.6376,91.4351,0,U,55640,999,9259,9.15E-05,9.99E-06,0
STARLINK-5065,2023-021P,2024-10-19T04:46:07.384512,14.9832784,0.0002804,70.0005,21.5117,270.2687,89.8151,0,U,55641,999,9262,-6.36E-05,-8.52E-06,0
STARLINK-5483,2023-021R,2024-10-18T23:03:25.366464,14.98338064,0.0003121,70.0006,22.2795,268.1576,91.9226,0,U,55643,999,9258,7.94E-05,8.55E-06,0
STARLINK-5502,2023-021S,2024-10-19T09:46:18.378624,14.98336517,0.0002878,70.001,21.0362,269.8289,90.2541,0,U,55644,999,9265,1.13E-04,1.26E-05,0
STARLINK-5104,2023-021U,2024-10-18T22:51:24.200352,14.9833095,0.0003054,70.0011,22.2577,270.9425,89.1384,0,U,55646,999,9288,4.31E-05,4.21E-06,0
STARLINK-5510,2023-021V,2024-10-19T10:34:21.188064,14.98341652,0.000311,70.0003,20.7499,267.3813,92.699,0,U,55647,999,9266,1.49E-04,1.69E-05,0
STARLINK-5501,2023-021W,2024-10-19T04:51:53.510688,14.98340845,0.0003096,70.0004,21.525,267.5629,92.5176,0,U,55648,999,9262,2.59E-04,3.00E-05,0
STARLINK-5469,2023-021X,2024-10-19T10:46:22.678176,14.9833671,0.000305,70.001,20.7796,267.9423,92.1387,0,U,55649,999,9266,5.73E-05,5.91E-06,0
STARLINK-5494,2023-021Y,2024-10-19T11:04:24.498624,14.9833454,0.00026,70.0025,20.8231,267.7401,92.346,0,U,55650,999,9266,1.39E-04,1.57E-05,0
STARLINK-5506,2023-021Z,2024-10-18T13:02:34.836000,14.98335132,0.0003282,70.002,23.2375,270.8118,89.2665,0,U,55651,999,9282,2.77E-04,3.22E-05,0
STARLINK-5487,2023-021AA,2024-10-18T23:39:26.885376,14.98337331,0.0003272,70.0004,21.9721,266.8497,93.2287,0,U,55652,999,9259,2.04E-04,2.34E-05,0
STARLINK-5067,2023-021AB,2024-10-18T23:15:24.541920,14.98330238,0.0002962,70.001,21.9117,268.8214,91.2605,0,U,55653,999,9259,1.76E-05,1.17E-06,0
STARLINK-5070,2023-021AC,2024-10-19T10:10:20.715168,14.98341671,0.0002957,70.0003,21.0926,268.6131,91.469,0,U,55654,999,9265,1.64E-04,1.87E-05,0
STARLINK-5267,2023-021AD,2024-10-19T11:04:00.603840,14.98395113,0.0003181,70.0004,0.948,263.2474,96.8323,0,U,55655,999,9315,7.84E-04,9.30E-05,0
STARLINK-5326,2023-021AE,2024-10-18T23:15:38.433312,14.98337724,0.0002981,70.0009,21.9132,264.2598,95.8221,0,U,55656,999,9259,1.71E-04,1.95E-05,0
STARLINK-5328,2023-021AF,2024-10-19T04:51:34.491456,14.98330827,0.0003023,70.0003,1.653,268.4325,91.6488,0,U,55657,999,9311,7.00E-05,7.42E-06,0
STARLINK-5307,2023-021AG,2024-10-19T10:40:22.054944,14.9834357,0.000311,70.0023,20.7649,266.3766,93.7037,0,U,55658,999,9266,4.15E-04,4.86E-05,0
STARLINK-5477,2023-021AH,2024-10-19T11:10:05.585088,14.98341088,0.0003262,70.0005,0.9619,265.4911,94.5875,0,U,55659,999,9315,1.94E-04,2.22E-05,0
STARLINK-5467,2023-021AJ,2024-10-19T05:09:34.113888,14.98333599,0.0002942,70,1.3014,269.0856,90.9966,0,U,55660,999,9312,6.02E-05,6.25E-06,0
STARLINK-5475,2023-021AK,2024-10-19T10:46:01.969824,14.98352094,0.0003274,70.0008,0.9037,268.3125,91.7659,0,U,55661,999,9315,2.83E-04,3.29E-05,0
STARLINK-5479,2023-021AL,2024-10-19T04:57:35.050752,14.98335732,0.0003056,70.0012,1.678,271.3048,88.7761,0,U,55662,999,9311,1.03E-04,1.13E-05,0
STARLINK-5473,2023-021AM,2024-10-19T04:09:29.585376,14.98342049,0.0003187,70.0011,1.5478,269.8329,90.2464,0,U,55663,999,9311,1.59E-04,1.81E-05,0
STARLINK-5480,2023-021AN,2024-10-19T10:57:57.990816,14.98427757,0.0003467,70.001,0.9334,262.6489,97.4276,0,U,55664,999,9315,1.19E-03,1.42E-04,0
STARLINK-5474,2023-021AP,2024-10-19T10:28:01.030656,14.98344457,0.0002487,70.0014,0.8618,274.8927,85.1948,0,U,55665,999,9315,-1.57E-06,-1.12E-06,0
STARLINK-5456,2023-021AR,2024-10-19T05:33:51.782976,14.98334553,0.0002717,69.9996,1.3512,277.2484,82.8366,0,U,55667,999,9312,-1.11E-04,-1.42E-05,0
STARLINK-5455,2023-021AS,2024-10-19T10:51:54.901728,14.98460987,0.0003126,70.0015,0.9205,260.4271,99.6535,0,U,55668,999,9315,1.61E-03,1.92E-04,0
